{"type": "FeatureCollection", "features": [{"type": "Feature", "id": "eez.223", "geometry": {"type": "MultiPolygon", "coordinates": [[[[129.01333333, 34.535], [129.01333333, 34.54333333], [129.05166667, 34.67166667], [129.20166667, 34.82833333], [129.21666667, 34.84333333], [129.26333333, 34.87333333], [129.30666667, 34.905], [129.36166667, 34.95], [129.37666667, 34.96], [129.42166667, 34.97666667], [129.54833333, 35.02], [129.67833333, 35.06833333], [130.125, 35.11333333], [130.27333333, 35.11666667], [130.38833333, 35.30333333], [130.56833333, 35.56166667], [130.71166667, 35.705], [131.13833333, 36.06333333], [131.19013387, 36.10559167], [131.265, 36.16666667], [131.30938636, 36.2023125], [131.31846167, 36.20436673], [131.35619854, 36.22581318], [131.5, 36.366955021538196], [131.5, 34.53215741004136], [131.49865413, 34.53183734], [131.49232161, 34.53180492], [131.49007857, 34.53332686], [131.48599505, 34.5329957], [131.484375, 34.53459823], [131.48155475, 34.53189635], [131.47829747, 34.53401315], [131.47220182, 34.5327183], [131.46710491, 34.53853154], [131.46470225, 34.53254175], [131.46167517, 34.52944362], [131.45753038, 34.52610362], [131.45459414, 34.52606416], [131.45531011, 34.52105784], [131.44886124, 34.51356554], [131.44935834, 34.51249504], [131.45172811, 34.51250374], [131.45306635, 34.51406765], [131.45474196, 34.51119947], [131.44908297, 34.50710356], [131.45213676, 34.50590467], [131.4564749, 34.50819683], [131.45871353, 34.50588477], [131.45780611, 34.50234151], [131.45994923468004, 34.5], [131.41791773728892, 34.5], [131.41777587, 34.50058615], [131.41862047, 34.50284684], [131.41611147, 34.50621796], [131.41697812, 34.51033127], [131.41680634, 34.51085806], [131.41478825, 34.51190186], [131.41383445, 34.51232207], [131.41148674, 34.51259601], [131.4101665, 34.51212645], [131.40861094, 34.51170588], [131.40753984, 34.51112497], [131.40401804, 34.50729966], [131.4036473, 34.50649607], [131.4016194653961, 34.5], [131.3463083392014, 34.5], [131.34623134, 34.50190663], [131.34446061, 34.50362706], [131.33995152, 34.50206232], [131.33976996, 34.50181711], [131.33909222323862, 34.5], [131.28026751526176, 34.5], [131.28047848, 34.50073326], [131.28100646, 34.50101662], [131.29252136, 34.50544083], [131.29265702, 34.50832558], [131.29552412, 34.51207817], [131.29126942, 34.51174104], [131.28982484, 34.51356626], [131.28408432, 34.51261961], [131.28345156, 34.51286948], [131.28320396, 34.51447856], [131.27802861, 34.51794255], [131.27416074, 34.51533842], [131.27246594, 34.51213694], [131.27061105, 34.50679386], [131.27089274, 34.50570107], [131.27394975632444, 34.5], [129.4274686900528, 34.5], [129.4289453, 34.50162375], [129.43685496, 34.50623274], [129.43786907, 34.50863624], [129.43676198, 34.51213384], [129.43917358, 34.51302743], [129.43744254, 34.51466894], [129.44184935, 34.51393175], [129.44265127, 34.51439083], [129.44451463, 34.51831865], [129.44863415, 34.52172422], [129.4516896, 34.52277505], [129.45187438, 34.5232352], [129.45125091, 34.52724385], [129.44575036, 34.52996576], [129.45263386, 34.53018606], [129.45662868, 34.53210461], [129.45794141, 34.5351969], [129.46082532, 34.5369637], [129.46189165, 34.54035676], [129.46393704, 34.54177666], [129.46370316, 34.54397202], [129.46110237, 34.54361963], [129.45912433, 34.54459214], [129.46090424, 34.54579771], [129.45933104, 34.55143464], [129.45973885, 34.55187225], [129.46242011, 34.55202365], [129.46379435, 34.55328715], [129.46428227, 34.55136454], [129.46620286, 34.55172443], [129.46724355, 34.54996347], [129.46891141, 34.54984105], [129.47482348, 34.55627501], [129.4701097, 34.55597377], [129.47041666, 34.55984914], [129.47301531, 34.56113017], [129.47045314, 34.56336343], [129.46995151, 34.56961966], [129.47549665, 34.56905842], [129.47719288, 34.57218134], [129.47230411, 34.57489395], [129.47640514, 34.58442926], [129.47527027, 34.58619523], [129.47246802, 34.58724761], [129.47518992, 34.59035027], [129.47967112, 34.59210658], [129.48084891, 34.59509468], [129.47887588, 34.59592223], [129.47450233, 34.59497654], [129.47330141, 34.59576297], [129.47509694, 34.59863257], [129.47474468, 34.60122526], [129.47141135, 34.60111272], [129.47137642, 34.60765994], [129.47097623, 34.60788476], [129.46211064, 34.60576344], [129.46108246, 34.60905194], [129.45843017, 34.60716665], [129.45573771, 34.60707545], [129.45503604, 34.60504258], [129.45396686, 34.60715592], [129.45202184, 34.60721564], [129.4513061, 34.61268675], [129.44991362, 34.61438704], [129.44518244, 34.61460078], [129.444507, 34.61448705], [129.44181955, 34.61390865], [129.44043255, 34.61237013], [129.43978834, 34.61258554], [129.43951201, 34.61280465], [129.43662298, 34.61732113], [129.4361366, 34.61900151], [129.43613935, 34.62146223], [129.43698251, 34.62290096], [129.43810523, 34.62269247], [129.43756485, 34.61806083], [129.44169891, 34.61830986], [129.44348633, 34.61668515], [129.44624162, 34.61814272], [129.4465878, 34.61794424], [129.45211101, 34.61369514], [129.45321226, 34.61040533], [129.45360374, 34.61023951], [129.45577765, 34.61201572], [129.45790517, 34.61220014], [129.45815432, 34.61343193], [129.45788956, 34.61393893], [129.45593345, 34.61399925], [129.45076466, 34.61956334], [129.45266581, 34.62206984], [129.44699752, 34.62398577], [129.44794893, 34.62850726], [129.44774866, 34.62890625], [129.44658875, 34.62951255], [129.44646132, 34.63002086], [129.44714654, 34.63064516], [129.44757736, 34.63053727], [129.44924498, 34.62890625], [129.44989586, 34.62819576], [129.44960642, 34.62464714], [129.45329332, 34.62407994], [129.45726204, 34.61563122], [129.45917594, 34.61568475], [129.45976198, 34.61395633], [129.46010804, 34.61374283], [129.46453416, 34.61210906], [129.46591604, 34.61547554], [129.46712732, 34.61473882], [129.47111595, 34.61841524], [129.47206545, 34.61582625], [129.47248387, 34.61582744], [129.47607625, 34.61714685], [129.47864544, 34.61681092], [129.47956753, 34.61727262], [129.4807837, 34.61865628], [129.4807446, 34.61931276], [129.47891486, 34.62215471], [129.47641528, 34.62199402], [129.47568154, 34.62340772], [129.47452903, 34.62333381], [129.47221684, 34.62532473], [129.47206581, 34.62560058], [129.47186995, 34.62741852], [129.4740622, 34.62739432], [129.47583306, 34.62890625], [129.47752488, 34.62890625], [129.47998536, 34.62696373], [129.48219061, 34.626459], [129.48257005, 34.62670088], [129.4832772, 34.62890625], [129.48314703, 34.62890625], [129.48436058, 34.63047934], [129.4819684, 34.63193095], [129.48454285, 34.63259387], [129.48762643, 34.63623548], [129.49087954, 34.64240766], [129.49127805, 34.64571571], [129.48958373, 34.64456928], [129.48423541, 34.64609182], [129.48224485, 34.64168644], [129.48296571, 34.64536965], [129.48197937, 34.64616334], [129.48011518, 34.64552414], [129.48012948, 34.64778745], [129.47579765, 34.64479125], [129.47898614, 34.65107191], [129.47747397, 34.65108097], [129.47652948, 34.64936066], [129.47600842, 34.65182531], [129.47313046, 34.65427947], [129.46625233, 34.65414441], [129.47504187, 34.65639317], [129.48070955, 34.65439284], [129.47997057, 34.65347016], [129.48135161, 34.65237427], [129.48513114, 34.65642774], [129.48167574, 34.65743208], [129.48541856, 34.65765607], [129.48578358, 34.65780365], [129.48709095, 34.65941525], [129.48434651, 34.65961266], [129.48531961, 34.66065836], [129.49843764, 34.66671133], [129.49857688, 34.66923785], [129.49765813, 34.66996264], [129.49468696, 34.66651881], [129.49143374, 34.66506755], [129.48461342, 34.66761613], [129.48576283, 34.66888952], [129.48491907, 34.67241931], [129.48613715, 34.67458117], [129.49022281, 34.67407835], [129.48806751, 34.67734134], [129.49561036, 34.67725885], [129.49231243, 34.68061376], [129.49526584, 34.68336511], [129.48762953, 34.68403137], [129.48700714, 34.68374395], [129.48657918, 34.68276715], [129.48633146, 34.67602825], [129.48044276, 34.67570507], [129.47842777, 34.67824614], [129.47528505, 34.67480683], [129.47454572, 34.67476213], [129.47418296, 34.67501342], [129.47284305, 34.67737806], [129.47583866, 34.68141234], [129.47504246, 34.68220484], [129.47260511, 34.68161845], [129.47512627, 34.68301594], [129.47599685, 34.6852715], [129.47179604, 34.68420327], [129.47256255, 34.68682754], [129.47741485, 34.68843961], [129.47974563, 34.68765855], [129.48017144, 34.69115245], [129.48242855, 34.69263566], [129.48308694, 34.6947304], [129.48284066, 34.69498706], [129.47383106, 34.69233155], [129.47108185, 34.69586194], [129.46509445, 34.69656444], [129.46715808, 34.69876301], [129.46427536, 34.70113766], [129.46231866, 34.69730485], [129.45986712, 34.69849312], [129.45697618, 34.69443631], [129.45631957, 34.69904494], [129.45969474, 34.70124877], [129.45745826, 34.70240665], [129.45437956, 34.70128536], [129.45299864, 34.69749665], [129.45196521, 34.69889367], [129.44927216, 34.69798875], [129.45181966, 34.70087886], [129.45156264, 34.70236981], [129.44938326, 34.70302951], [129.45017135, 34.70563602], [129.44964457, 34.70705116], [129.44633365, 34.70451152], [129.44601345, 34.70591795], [129.44570315, 34.70609665], [129.44448364, 34.70589793], [129.44379687, 34.70534945], [129.44356716, 34.70483351], [129.44549525, 34.70359492], [129.44296718, 34.70161235], [129.44284487, 34.69901872], [129.43965757, 34.69827294], [129.44063747, 34.69663072], [129.43939066, 34.69552505], [129.43230605, 34.69253516], [129.42943573, 34.69312263], [129.42848885, 34.69503653], [129.42458928, 34.69347048], [129.42544007, 34.69739425], [129.42416823, 34.69885075], [129.42358267, 34.69890547], [129.42130256, 34.69641435], [129.41893911, 34.69641435], [129.41732836, 34.69513392], [129.41698468, 34.69259536], [129.41446912, 34.69217336], [129.41373444, 34.69028926], [129.41401231, 34.68885171], [129.41429555, 34.68864322], [129.41869354, 34.68843245], [129.41571415, 34.68524265], [129.41449285, 34.68294013], [129.41499805, 34.68159604], [129.41718554, 34.6792016], [129.41835713, 34.67859554], [129.41886055, 34.67870891], [129.42237985, 34.68106675], [129.42812824, 34.6809113], [129.42861831, 34.68075657], [129.42812252, 34.67953205], [129.42860293, 34.67921138], [129.43248892, 34.67809546], [129.43142712, 34.67632115], [129.43246627, 34.67450964], [129.42960835, 34.67399526], [129.42929995, 34.67760086], [129.42532361, 34.67965555], [129.41968906, 34.67630815], [129.41474032, 34.67792523], [129.41365492, 34.67710543], [129.40994585, 34.67926848], [129.40868366, 34.67922175], [129.4081223, 34.67885566], [129.40649342, 34.67701387], [129.40681183, 34.67373145], [129.40368295, 34.67171252], [129.40040505, 34.67125905], [129.40013671, 34.67088985], [129.39944863, 34.6691972], [129.39951098, 34.66889441], [129.40259254, 34.66494977], [129.39923, 34.66389465], [129.3966186, 34.66456544], [129.39601564, 34.66358864], [129.39514911, 34.6586076], [129.39278376, 34.65678835], [129.39432764, 34.65220046], [129.39183664, 34.65470648], [129.38848233, 34.65455782], [129.38777173, 34.65083885], [129.38277304, 34.64859283], [129.38413882, 34.64567387], [129.38720822, 34.64464605], [129.38733065, 34.64212871], [129.39293897, 34.64045668], [129.39261782, 34.64019704], [129.38930798, 34.63908541], [129.38263643, 34.64319944], [129.3790102, 34.64285552], [129.375, 34.64704227], [129.36803102, 34.64221084], [129.36505485, 34.63840187], [129.36317956, 34.64024222], [129.36310613, 34.64581287], [129.35964155, 34.64917195], [129.35881162, 34.64972985], [129.35400915, 34.65031385], [129.35280478, 34.65009761], [129.34198677, 34.64573455], [129.33813691, 34.6392554], [129.33435225, 34.63727403], [129.33572412, 34.64060164], [129.33563805, 34.64433396], [129.33413041, 34.64942133], [129.33386803, 34.64966464], [129.33076906, 34.65119648], [129.32500672, 34.64891422], [129.32229972, 34.64951241], [129.32136178, 34.64902341], [129.31913126, 34.64580464], [129.32068205, 34.64272773], [129.3187623, 34.63903856], [129.31854975, 34.63091207], [129.31713927, 34.62890625], [129.31702781, 34.62890625], [129.31721795, 34.62535977], [129.31311858, 34.62114334], [129.31333435, 34.61481261], [129.30434585, 34.60126603], [129.30722725, 34.59612977], [129.30474246, 34.5915451], [129.30550873, 34.58951402], [129.30258095, 34.58912957], [129.30233014, 34.58715916], [129.29801464, 34.58311152], [129.29778886, 34.57840526], [129.29459906, 34.57316434], [129.28983641, 34.57128274], [129.29159772, 34.57013524], [129.28858435, 34.57085276], [129.28717661, 34.57013023], [129.28542554, 34.56289506], [129.28568888, 34.56145215], [129.28886402, 34.55543494], [129.29542351, 34.55529034], [129.29860163, 34.55750096], [129.29920101, 34.55814052], [129.30136573, 34.56287587], [129.30408907, 34.56456494], [129.30440044, 34.56504965], [129.30438185, 34.56708741], [129.30624306, 34.56759834], [129.3060745, 34.56451416], [129.30947888, 34.56356895], [129.30740321, 34.56042278], [129.30981886, 34.55640614], [129.31252837, 34.55780268], [129.31306207, 34.55964172], [129.31541026, 34.55777073], [129.31468511, 34.55595374], [129.31634843, 34.55382192], [129.31440234, 34.55258656], [129.31432772, 34.54949522], [129.32114327, 34.54709935], [129.32361805, 34.55004776], [129.32811213, 34.55031407], [129.32643747, 34.54831481], [129.32614195, 34.54391515], [129.32913601, 34.54291821], [129.32767796, 34.53755057], [129.32973325, 34.53310466], [129.33207691, 34.53170657], [129.33820808, 34.53695643], [129.34378243, 34.53345227], [129.33814681, 34.53503907], [129.33288765, 34.52889085], [129.32942724, 34.52851725], [129.32529104, 34.53059411], [129.32583594, 34.53478515], [129.32499266, 34.53598416], [129.32273054, 34.53756154], [129.32040465, 34.53801155], [129.31807578, 34.53629541], [129.31980741, 34.53463662], [129.3193022, 34.53207755], [129.32084095, 34.53041446], [129.31582975, 34.52902257], [129.31596577, 34.52523124], [129.31194067, 34.52039945], [129.31179047, 34.51997364], [129.31192565, 34.51916444], [129.31402636, 34.5182718], [129.31431782, 34.51550555], [129.31220162, 34.51599026], [129.31064022, 34.51915514], [129.31046271, 34.51975906], [129.31090021, 34.52321303], [129.31011963, 34.52532113], [129.30966318, 34.52555954], [129.30884051, 34.52541316], [129.30364954, 34.52032876], [129.30168164, 34.51328743], [129.30313158, 34.51153398], [129.29973805, 34.51080692], [129.29708064, 34.50692856], [129.29665661029378, 34.5], [129.00609195019024, 34.5], [129.01333333, 34.535]], [[131.49141645, 34.54321682], [131.49253046, 34.54244006], [131.49279785, 34.54293716], [131.49202764, 34.54476833], [131.49164093, 34.54495954], [131.49101245, 34.54429054], [131.49141645, 34.54321682]], [[131.47895253, 34.57175457], [131.47937596, 34.57176173], [131.48028564, 34.57224524], [131.48131645, 34.57436574], [131.48053944, 34.57494736], [131.47941434, 34.57511961], [131.47817814, 34.57375836], [131.47800398, 34.57269394], [131.47895253, 34.57175457]], [[131.38356233, 34.51495206], [131.38578796, 34.51226437], [131.38755524, 34.51214826], [131.39077878, 34.51341081], [131.39264202, 34.51886213], [131.39257336, 34.52195144], [131.39176917, 34.52313614], [131.39012134, 34.52364278], [131.38903725, 34.52374482], [131.38688326, 34.52289927], [131.38444126, 34.52117014], [131.38426197, 34.52074814], [131.38379538, 34.51810086], [131.38356233, 34.51495206]], [[131.15067637, 34.76057613], [131.15251136, 34.75955582], [131.15322924, 34.76295817], [131.15651357, 34.76235938], [131.16120505, 34.76349962], [131.16154456, 34.76385605], [131.16255331, 34.76825321], [131.16168654, 34.77445531], [131.16182876, 34.77496505], [131.16512477, 34.7769345], [131.16342855, 34.77864635], [131.15985274, 34.77527583], [131.15663397, 34.77523637], [131.15507281, 34.77731192], [131.14732802, 34.7788465], [131.14692676, 34.7790333], [131.14391065, 34.78142405], [131.14639354, 34.78349793], [131.14649403, 34.78564393], [131.15003014, 34.78571355], [131.15094876, 34.78690398], [131.15074003, 34.78742325], [131.14874637, 34.78932416], [131.14519322, 34.78852904], [131.14396584, 34.78853726], [131.1407721, 34.78908408], [131.13944483, 34.79136324], [131.13535702, 34.79224396], [131.13492227, 34.79260635], [131.1328125, 34.79631686], [131.1328125, 34.79771197], [131.13071168, 34.79820478], [131.13023627, 34.79790211], [131.12847936, 34.79535162], [131.12747705, 34.78712988], [131.12972653, 34.783342], [131.13011396, 34.76947701], [131.1328125, 34.76590395], [131.1328125, 34.76506686], [131.13539231, 34.76238227], [131.13636005, 34.75813651], [131.14028382, 34.75888813], [131.14218211, 34.75722432], [131.14865828, 34.75802374], [131.15067637, 34.76057613]], [[129.48687625, 34.62890625], [129.48721516, 34.62890625], [129.49043024, 34.63078415], [129.48891282, 34.63247836], [129.48850608, 34.63248014], [129.48570538, 34.63074136], [129.48687625, 34.62890625]], [[129.47805762, 34.68198514], [129.47851396, 34.67994213], [129.47971237, 34.67913055], [129.48309016, 34.68216562], [129.48237646, 34.68362701], [129.4806391, 34.68379343], [129.47965682, 34.68407333], [129.47876143, 34.68418324], [129.47840345, 34.68390465], [129.47819996, 34.68288136], [129.47805762, 34.68198514]], [[129.44705701, 34.72561932], [129.44355357, 34.72511935], [129.44318485, 34.72500384], [129.44288576, 34.72418606], [129.44315147, 34.72366941], [129.44464386, 34.72335672], [129.44523394, 34.72359931], [129.44741642, 34.72532475], [129.44705701, 34.72561932]], [[129.43756056, 34.70605612], [129.44128585, 34.70551574], [129.44168532, 34.70587635], [129.44106936, 34.70744181], [129.44067335, 34.70759201], [129.43660581, 34.70749354], [129.43437028, 34.70775414], [129.43279087, 34.70580375], [129.43287683, 34.70346975], [129.43311524, 34.70323992], [129.4362334, 34.70443106], [129.43756056, 34.70605612]]], [[[131.46417785, 34.50136912], [131.46618664, 34.50086153], [131.46589799305184, 34.5], [131.46044541595145, 34.5], [131.46417785, 34.50136912]]]]}, "geometry_name": "the_geom", "properties": {"mrgid": 8487, "geoname": "Japanese Exclusive Economic Zone", "mrgid_ter1": 2121, "pol_type": "200NM", "mrgid_sov1": 2121, "territory1": "Japan", "iso_ter1": "JPN", "sovereign1": "Japan", "mrgid_ter2": null, "mrgid_sov2": null, "territory2": null, "iso_ter2": null, "sovereign2": null, "mrgid_ter3": null, "mrgid_sov3": null, "territory3": null, "iso_ter3": null, "sovereign3": null, "x_1": 138.44863, "y_1": 29.55656, "mrgid_eez": 8487, "area_km2": 4066513, "iso_sov1": "JPN", "iso_sov2": null, "iso_sov3": null, "un_sov1": 392, "un_sov2": null, "un_sov3": null, "un_ter1": 392, "un_ter2": null, "un_ter3": null}}], "totalFeatures": 1, "numberMatched": 1, "numberReturned": 1, "timeStamp": "2026-03-26T23:42:17.522Z", "crs": {"type": "name", "properties": {"name": "urn:ogc:def:crs:EPSG::4326"}}}