{"type": "FeatureCollection", "features": [{"type": "Feature", "id": "eez.239", "geometry": {"type": "MultiPolygon", "coordinates": [[[[131.35619854, 36.22581318], [131.31846167, 36.20436673], [131.30938636, 36.2023125], [131.265, 36.16666667], [131.19013387, 36.10559167], [131.13833333, 36.06333333], [130.71166667, 35.705], [130.56833333, 35.56166667], [130.38833333, 35.30333333], [130.27333333, 35.11666667], [130.125, 35.11333333], [129.67833333, 35.06833333], [129.54833333, 35.02], [129.42166667, 34.97666667], [129.37666667, 34.96], [129.36166667, 34.95], [129.30666667, 34.905], [129.26333333, 34.87333333], [129.21666667, 34.84333333], [129.20166667, 34.82833333], [129.05166667, 34.67166667], [129.01333333, 34.54333333], [129.01333333, 34.535], [129.00609195019024, 34.5], [129.0, 34.5], [129.0, 35.04493315385962], [129.00056875, 35.04542601], [129.00243843, 35.04813695], [129.00268924, 35.04890716], [129.00163615, 35.05123675], [129.00034857, 35.05080497], [129.0, 35.05120953664154], [129.0, 35.05308979331216], [129.00087202, 35.05509925], [129.0, 35.05586206218804], [129.0, 35.080518022501394], [129.00025606, 35.08057916], [129.00163865, 35.0792346], [129.00114715, 35.08337235], [129.00269687, 35.08447433], [129.00388634, 35.08420861], [129.00416696, 35.08390295], [129.00490117, 35.07123315], [129.00631416, 35.07001436], [129.00625503, 35.06794953], [129.00904298, 35.06685126], [129.01081574, 35.06419802], [129.00953925, 35.06130111], [129.01364052, 35.05379415], [129.01313102, 35.05216968], [129.01591694, 35.05262041], [129.0163002, 35.05614388], [129.01795626, 35.05669856], [129.01856208, 35.05883503], [129.0234375, 35.06138384], [129.0234375, 35.0625], [129.02292645, 35.0625], [129.02091324, 35.06460261], [129.02083015, 35.06970525], [129.01732421, 35.07270837], [129.01649785, 35.07496095], [129.01954293, 35.07753575], [129.02205765, 35.07478261], [129.02335131, 35.07463825], [129.0234375, 35.07477665], [129.0234375, 35.07505584], [129.02490902, 35.07644951], [129.02660656, 35.08434641], [129.02892971, 35.08557308], [129.03166652, 35.08520544], [129.02821064, 35.08780885], [129.02790964, 35.08828974], [129.02723682, 35.09190643], [129.02961707, 35.09525037], [129.03767633, 35.09610331], [129.03809786, 35.09633481], [129.04024005, 35.10103464], [129.04418266, 35.10302806], [129.04083645, 35.10549903], [129.04448187, 35.10543716], [129.04186451, 35.10812163], [129.04478645, 35.11401963], [129.04743862, 35.11449313], [129.05063212, 35.11220515], [129.05079675, 35.11455536], [129.04845917, 35.11672544], [129.05026591, 35.11734426], [129.05341196, 35.11584115], [129.05350935, 35.11708105], [129.05071032, 35.11926341], [129.05074716, 35.12184012], [129.05491984, 35.11747634], [129.06491983, 35.1261872], [129.06537414, 35.12609375], [129.06601083, 35.12488306], [129.06553996, 35.12256205], [129.06850874, 35.12126493], [129.07050192, 35.12245226], [129.07210374, 35.12129545], [129.07052743, 35.11865401], [129.07122791, 35.11614692], [129.06805456, 35.11339593], [129.06727386, 35.10734284], [129.06863737, 35.10586727], [129.07233965, 35.10390568], [129.07714522, 35.10218763], [129.07887113, 35.10315573], [129.08984721, 35.10280824], [129.09085906, 35.10361981], [129.09039772, 35.10763931], [129.09169042, 35.10827363], [129.09368181, 35.10663116], [129.09335852, 35.09951782], [129.09507132, 35.0944519], [129.09937215, 35.09119034], [129.09905755, 35.09496677], [129.10608614, 35.09093285], [129.10262418, 35.09453773], [129.11279047, 35.10209906], [129.11560583, 35.09993052], [129.11595345, 35.09981132], [129.12281716, 35.09920347], [129.12346435, 35.09715307], [129.12373972, 35.09698224], [129.12621856, 35.09700584], [129.12656641, 35.0971961], [129.12560952, 35.10119343], [129.12430441, 35.10184467], [129.1286025, 35.11088467], [129.12773561, 35.11329937], [129.12996328, 35.11759973], [129.12443936, 35.12407827], [129.12483585, 35.12780964], [129.12294507, 35.1286664], [129.12118041, 35.13362718], [129.12018526, 35.13388145], [129.11753964, 35.13027501], [129.11738372, 35.13369918], [129.11234724, 35.13340998], [129.11108041, 35.13426316], [129.11100864, 35.1348598], [129.11274862, 35.13681603], [129.11807322, 35.13989008], [129.11816561, 35.14584303], [129.11529362, 35.14714301], [129.11516011, 35.14777327], [129.11564887, 35.14937735], [129.11996043, 35.15398455], [129.12152505, 35.15439212], [129.12277961, 35.15442336], [129.13017952, 35.15254545], [129.13480294, 35.15435815], [129.1356287, 35.15535951], [129.1356287, 35.15582621], [129.13539135, 35.15625], [129.13046157, 35.16254365], [129.12404096, 35.16726577], [129.1185621, 35.17625344], [129.11733913, 35.17872965], [129.1146419, 35.1876229], [129.11438024, 35.19256878], [129.12088215, 35.17590105], [129.12690926, 35.16730654], [129.13240182, 35.16293061], [129.13440144, 35.16192806], [129.13621414, 35.16236413], [129.13550198, 35.16126573], [129.13823986, 35.15878987], [129.13764274, 35.15999842], [129.13936508, 35.16096401], [129.14219475, 35.15846956], [129.1409657, 35.15625], [129.14097953, 35.15583694], [129.14202404, 35.15480733], [129.14317775, 35.15423596], [129.14698625, 35.15307415], [129.14836407, 35.15596557], [129.15235984, 35.15727985], [129.14992726, 35.15458131], [129.14990854, 35.15200114], [129.15025294, 35.15115273], [129.15246856, 35.15126765], [129.15282965, 35.15137422], [129.15518796, 35.15625], [129.15524483, 35.15672696], [129.15830433, 35.15850377], [129.15896654, 35.15863621], [129.16510296, 35.15962446], [129.16888976, 35.15928364], [129.16944933, 35.15913761], [129.17361951, 35.15625], [129.17469096, 35.15625], [129.18172967, 35.15430415], [129.18454182, 35.15625], [129.18457031, 35.15625], [129.18688464, 35.15911281], [129.18736255, 35.1593101], [129.19184327, 35.15879905], [129.19598722, 35.16284943], [129.19762576, 35.16561556], [129.19891477, 35.17118907], [129.19820905, 35.17611074], [129.20041454, 35.17936444], [129.20458353, 35.17990625], [129.20558465, 35.17849815], [129.20691836, 35.17877316], [129.20793617, 35.18131304], [129.21006596, 35.1821804], [129.21167541, 35.17997742], [129.21456802, 35.18624461], [129.21651244, 35.18692863], [129.21984148, 35.18310678], [129.22453725, 35.18533194], [129.22479725, 35.18562555], [129.22400892, 35.19020104], [129.22633648, 35.19230425], [129.22501922, 35.19610286], [129.22774434, 35.19541371], [129.23011661, 35.19650507], [129.2321105, 35.20136845], [129.23028564, 35.20181382], [129.22938776, 35.20596147], [129.22535253, 35.20772326], [129.22266495, 35.21292257], [129.22879302, 35.21798933], [129.22762752, 35.22260797], [129.22899365, 35.22414303], [129.23034096, 35.22314918], [129.22946286, 35.22100282], [129.23153985, 35.22167611], [129.2348994, 35.21995521], [129.23390913, 35.21574867], [129.23478401, 35.21536815], [129.23659253, 35.21975255], [129.24016416, 35.22163975], [129.24123204, 35.22854054], [129.24601781, 35.23072135], [129.24539006, 35.23238754], [129.2465862, 35.23396146], [129.24431336, 35.23546004], [129.24428785, 35.23712897], [129.24714077, 35.23718464], [129.24700522, 35.23850787], [129.25007784, 35.24039733], [129.24800706, 35.24321795], [129.24588501, 35.24223244], [129.2452265, 35.24345088], [129.24758291, 35.24512732], [129.25125146, 35.2438848], [129.25408554, 35.24649715], [129.25246215, 35.25503087], [129.25316358, 35.25898993], [129.25442922, 35.25881171], [129.25356126, 35.26031673], [129.24887586, 35.26036644], [129.24670374, 35.26153648], [129.24674046, 35.25875235], [129.24382043, 35.25999415], [129.23952508, 35.25757575], [129.23555446, 35.25904274], [129.23374665, 35.26184762], [129.23394012, 35.26241767], [129.2359519, 35.26422095], [129.24188423, 35.26445437], [129.24320495, 35.26361954], [129.24487913, 35.26749158], [129.24454105, 35.27146316], [129.25078416, 35.27139962], [129.25159144, 35.27040875], [129.25620925, 35.27469134], [129.25634384, 35.28066325], [129.26026547, 35.28307617], [129.25993836, 35.28678727], [129.25765467, 35.28852081], [129.26059043, 35.28991473], [129.26173246, 35.29401124], [129.26200652, 35.29756093], [129.26007342, 35.30006361], [129.26130104, 35.30370414], [129.25899422, 35.30325258], [129.25878251, 35.30488884], [129.26168084, 35.30901217], [129.26242328, 35.31405354], [129.26412773, 35.31776655], [129.26562083, 35.31889164], [129.27171958, 35.3223505], [129.27594984, 35.32415092], [129.27835143, 35.32401943], [129.28052783, 35.32589138], [129.28199875, 35.32616186], [129.28331876, 35.32601345], [129.28776777, 35.32269382], [129.28665841, 35.32017362], [129.28709745, 35.31957817], [129.28885376, 35.31867898], [129.29182375, 35.31800461], [129.29689467, 35.3178308], [129.29950726, 35.31830382], [129.30001116, 35.31974387], [129.30188501, 35.32006586], [129.30237806, 35.32137334], [129.30010974, 35.32024694], [129.30008495, 35.32145393], [129.30338895, 35.32459211], [129.30393136, 35.32974195], [129.30785191, 35.33048618], [129.30681384, 35.32943165], [129.309633, 35.32925831], [129.31336701, 35.32902873], [129.31390321, 35.33203125], [129.31412625, 35.33203125], [129.31411517, 35.33245695], [129.31689811, 35.33814657], [129.31986356, 35.33739996], [129.32036304, 35.3377496], [129.32217097, 35.34066296], [129.32258451, 35.34532833], [129.32289875, 35.34570026], [129.32558024, 35.34618914], [129.32607925, 35.34758484], [129.32741332, 35.34746957], [129.32773387, 35.34580517], [129.33239925, 35.34714615], [129.33520436, 35.35538197], [129.34173536, 35.35582447], [129.34206617, 35.35385084], [129.34443307, 35.35290921], [129.34476388, 35.35082603], [129.35145974, 35.35455954], [129.35537851, 35.35381818], [129.36044705, 35.35545087], [129.36074293, 35.35568786], [129.36323845, 35.35899305], [129.36229801, 35.36080647], [129.36082506, 35.36086225], [129.36102438, 35.36450767], [129.35767114, 35.36745155], [129.35592771, 35.36624753], [129.3549484, 35.36690998], [129.35651457, 35.37292945], [129.35249543, 35.37252104], [129.35194385, 35.37262845], [129.35032845, 35.37476671], [129.34758544, 35.37382615], [129.34576797, 35.37417841], [129.34562147, 35.37446535], [129.34610593, 35.37783992], [129.34453034, 35.3805269], [129.34793651, 35.38512897], [129.3466773, 35.38849771], [129.34714365, 35.38965035], [129.34740555, 35.38998997], [129.34990013, 35.39132476], [129.35497975, 35.39228892], [129.35590863, 35.39405346], [129.35494113, 35.39770174], [129.35701597, 35.39943433], [129.35214841, 35.40221763], [129.35501432, 35.40320051], [129.35786605, 35.40279865], [129.36355591, 35.40618324], [129.36160457, 35.40683258], [129.36284733, 35.41082466], [129.35628324, 35.41031846], [129.35560191, 35.41026592], [129.35647595, 35.41499984], [129.35449135, 35.4152441], [129.35197485, 35.41752732], [129.35285854, 35.41944981], [129.35480726, 35.41953564], [129.35485995, 35.42228222], [129.36149585, 35.42232513], [129.36149585, 35.42511463], [129.35291135, 35.42670238], [129.36065316, 35.42665946], [129.36068654, 35.42748797], [129.36665761, 35.42910576], [129.36776364, 35.43065071], [129.36798618, 35.43065366], [129.37424195, 35.43073654], [129.36913288, 35.43120861], [129.36875609, 35.43199147], [129.36807954, 35.43339717], [129.36470866, 35.43511391], [129.36397135, 35.43768883], [129.36934376, 35.44820297], [129.37461054, 35.44695854], [129.36960697, 35.44888973], [129.3690803, 35.44893265], [129.36786902, 35.44678676], [129.36539352, 35.44579983], [129.36507738, 35.44498444], [129.36681545, 35.44434071], [129.36505473, 35.44121265], [129.35528636, 35.43805361], [129.353917, 35.44077325], [129.35896683, 35.44258654], [129.35973716, 35.44760764], [129.35601974, 35.44754458], [129.35253561, 35.44538188], [129.35186267, 35.44718921], [129.34989417, 35.44795632], [129.34550607, 35.46725941], [129.33748841, 35.47333944], [129.33696485, 35.47526038], [129.33879638, 35.47707701], [129.33679175, 35.48073697], [129.32911277, 35.48303425], [129.32935131, 35.48329461], [129.33704841, 35.48221171], [129.34037292, 35.47694194], [129.33928156, 35.47450662], [129.34983444, 35.46833551], [129.34943914, 35.46748483], [129.35314775, 35.46421111], [129.35464251, 35.45863152], [129.36837626, 35.45388925], [129.37134087, 35.45140445], [129.37250233, 35.45060635], [129.37264442, 35.45098007], [129.36923575, 35.45369625], [129.37061727, 35.4574424], [129.3631072, 35.45983016], [129.37439644, 35.46751487], [129.37496436, 35.46930134], [129.37555575, 35.4703474], [129.37819052, 35.47214985], [129.38016427, 35.47111785], [129.38168705, 35.47248995], [129.38191438, 35.47277713], [129.38398802, 35.47598445], [129.38362527, 35.48053968], [129.38568091, 35.48182726], [129.38481116, 35.48414457], [129.38939321, 35.48776436], [129.38784754, 35.48862874], [129.37951398, 35.49946535], [129.37580872, 35.50016975], [129.37508655, 35.49882174], [129.36757565, 35.49811363], [129.36267376, 35.50480843], [129.35413504, 35.5079627], [129.36552, 35.50480843], [129.37018454, 35.50075293], [129.37213087, 35.50039482], [129.375, 35.50139511], [129.3785758, 35.50264764], [129.37919092, 35.50269318], [129.38575995, 35.50062406], [129.38710403, 35.50139666], [129.3872596, 35.50321257], [129.38852715, 35.50371397], [129.38742018, 35.50435781], [129.38765335, 35.5078125], [129.38699293, 35.5078125], [129.38587308, 35.50961542], [129.385607, 35.51644874], [129.37516975, 35.51706612], [129.37591815, 35.52150273], [129.375, 35.52399552], [129.37399805, 35.52479005], [129.37400043, 35.52543211], [129.37482858, 35.52622771], [129.375, 35.52622771], [129.375, 35.52650654], [129.37583542, 35.52715695], [129.37885988, 35.52679956], [129.37892365, 35.52725375], [129.37805653, 35.52882326], [129.375, 35.53069186], [129.375, 35.53097093], [129.37071323, 35.53470278], [129.36729372, 35.53903282], [129.36387897, 35.5399214], [129.36316037, 35.54121125], [129.35955811, 35.54158103], [129.34845746, 35.54880774], [129.34728026, 35.54903626], [129.34067845, 35.54798114], [129.32281172, 35.5501368], [129.31114638, 35.54994965], [129.30687594, 35.54958081], [129.30461144, 35.54899681], [129.30145764, 35.54502547], [129.30089664, 35.54484355], [129.29677415, 35.54415691], [129.29316938, 35.54470742], [129.29225445, 35.54495311], [129.28908646, 35.54790127], [129.28094542, 35.55140805], [129.28050494, 35.55156374], [129.26949191, 35.55320466], [129.26887441, 35.55347872], [129.26427865, 35.55613744], [129.26352024, 35.55831313], [129.26488352, 35.55974531], [129.26822925, 35.55684781], [129.28851986, 35.55080175], [129.29209661, 35.54622245], [129.29536235, 35.54528415], [129.30134082, 35.54591536], [129.30338585, 35.55205154], [129.30590022, 35.55351734], [129.30922151, 35.55199635], [129.3333559, 35.55130982], [129.34281576, 35.54973185], [129.34916174, 35.54995], [129.35003865, 35.5519402], [129.35160172, 35.54981744], [129.35526335, 35.54907763], [129.36042225, 35.54581273], [129.36817563, 35.54454255], [129.375, 35.53878343], [129.37889314, 35.53594661], [129.38852715, 35.52610505], [129.38879752, 35.5240978], [129.39491761, 35.51766992], [129.39699137, 35.51322436], [129.39592207, 35.50918496], [129.39688706, 35.5078125], [129.39746118, 35.50719023], [129.39564276, 35.50126791], [129.40315366, 35.49933672], [129.40805554, 35.49289942], [129.40418148, 35.48684835], [129.40433967, 35.47963846], [129.40221715, 35.47672594], [129.40650451, 35.47467804], [129.40598905, 35.47210395], [129.40992725, 35.47110307], [129.41042912, 35.47114122], [129.41115203, 35.47156187], [129.41308606, 35.47268724], [129.4156996, 35.47506034], [129.41579235, 35.47977281], [129.41628385, 35.48012996], [129.41893983, 35.48143721], [129.41950047, 35.48149574], [129.42229974, 35.48020387], [129.42718875, 35.48047543], [129.42853284, 35.47938096], [129.42774224, 35.48099041], [129.42497504, 35.48137665], [129.42418444, 35.48408031], [129.42497504, 35.48472404], [129.42639816, 35.48478842], [129.43011415, 35.48420894], [129.43165648, 35.48053873], [129.43390906, 35.48041105], [129.43501604, 35.48279285], [129.43937647, 35.48524272], [129.44219482, 35.49135637], [129.44608426, 35.49033642], [129.44647264, 35.49070215], [129.44647133, 35.49136055], [129.44583952, 35.49284804], [129.44137585, 35.49568248], [129.43568575, 35.49243665], [129.43199146, 35.49311674], [129.43058085, 35.49623334], [129.43326366, 35.49957275], [129.44012475, 35.5001235], [129.44048083, 35.50021815], [129.4433099, 35.50154758], [129.44362032, 35.50225294], [129.44366395, 35.50328314], [129.44323957, 35.50594854], [129.44214034, 35.50696325], [129.44125688, 35.50716186], [129.43703961, 35.50641775], [129.43348706, 35.50429344], [129.43210936, 35.50506055], [129.43261695, 35.50806987], [129.4329071, 35.51072526], [129.44124472, 35.51043034], [129.44175208, 35.50865996], [129.44559455, 35.51078427], [129.45035326, 35.52415252], [129.44740725, 35.52589047], [129.44595706, 35.52294016], [129.44015706, 35.521878], [129.43979454, 35.51987171], [129.43870711, 35.51975358], [129.43885195, 35.52807391], [129.44834971, 35.528723], [129.45400476, 35.52594948], [129.45134675, 35.5369091], [129.45372021, 35.54179072], [129.45249152, 35.54337645], [129.45427084, 35.54677475], [129.45620942, 35.54720426], [129.45584166, 35.55130136], [129.45872557, 35.55202544], [129.45930707, 35.55987263], [129.45770264, 35.56168866], [129.45843196, 35.56431103], [129.45575178, 35.56561577], [129.45335257, 35.57079625], [129.45311117, 35.57663596], [129.45421815, 35.57745516], [129.45327282, 35.57852316], [129.45422328, 35.58002436], [129.45676863, 35.58051813], [129.45746684, 35.58445132], [129.46168435, 35.5838232], [129.46508324, 35.58609402], [129.46401405, 35.58743835], [129.46510458, 35.58814263], [129.46391058, 35.58942437], [129.46386814, 35.59414601], [129.46537685, 35.59774542], [129.46466362, 35.60228121], [129.46341181, 35.60325074], [129.46492302, 35.60421681], [129.46486485, 35.60450613], [129.46198463, 35.60807753], [129.4616878, 35.60825491], [129.45804393, 35.60852122], [129.45911705, 35.61377835], [129.45074892, 35.61455917], [129.45081925, 35.61777115], [129.45431936, 35.61620593], [129.45412683, 35.61711681], [129.44673799, 35.62199342], [129.44560838, 35.62273896], [129.44457233, 35.62414086], [129.44151604, 35.63186765], [129.44382584, 35.63439071], [129.44171298, 35.63972795], [129.44158721, 35.64379394], [129.44175565, 35.6446681], [129.44238663, 35.64528561], [129.44696915, 35.6454128], [129.44725478, 35.64563584], [129.44947183, 35.6477195], [129.45073616, 35.65188766], [129.45304871, 35.65646625], [129.45317817, 35.66415882], [129.45712059, 35.66588349], [129.45729482, 35.66595972], [129.46029711, 35.66413176], [129.46168995, 35.66586745], [129.46625376, 35.66583681], [129.46648502, 35.66614294], [129.46655405, 35.66919315], [129.4648602, 35.67091787], [129.46623302, 35.67928982], [129.46968424, 35.67839086], [129.4713999, 35.67886114], [129.47163725, 35.67905593], [129.47368407, 35.68359375], [129.47362995, 35.68359375], [129.4741255, 35.68474698], [129.47590661, 35.68545651], [129.4760406, 35.68921661], [129.47810817, 35.69017315], [129.47819042, 35.69043517], [129.47710907, 35.69194126], [129.47694027, 35.69069743], [129.4754585, 35.69099546], [129.47669721, 35.69283545], [129.47580445, 35.69512546], [129.47664094, 35.69826043], [129.47546315, 35.69843614], [129.47265697, 35.70348585], [129.47402453, 35.70706427], [129.47847462, 35.71185756], [129.48184454, 35.70982444], [129.48130417, 35.70779705], [129.48265052, 35.70906591], [129.47989535, 35.71402705], [129.48245037, 35.72062147], [129.48240972, 35.72489655], [129.48716295, 35.73012316], [129.48436785, 35.74295783], [129.48570013, 35.74453926], [129.48740435, 35.74447298], [129.48920822, 35.74767232], [129.49549115, 35.75220072], [129.4957031, 35.75281453], [129.49259233, 35.75512493], [129.49243391, 35.75541735], [129.4919219, 35.75834835], [129.49204075, 35.75912595], [129.49220335, 35.75957847], [129.49414885, 35.75969267], [129.49588287, 35.76167357], [129.49457204, 35.76937103], [129.49845254, 35.77151668], [129.49542618, 35.77521002], [129.49594986, 35.77734005], [129.49472415, 35.77729964], [129.49372995, 35.77903652], [129.49207687, 35.78777707], [129.4950031, 35.79086995], [129.49555731, 35.7887814], [129.5019654, 35.79310095], [129.49955034, 35.7992357], [129.50530148, 35.80224562], [129.50778902, 35.80549264], [129.50474775, 35.80504107], [129.50493956, 35.80789328], [129.51172686, 35.80559254], [129.51311195, 35.80654931], [129.51149034, 35.81200135], [129.51480174, 35.81672585], [129.51248515, 35.81778967], [129.50940478, 35.82357645], [129.51378787, 35.82812595], [129.51484156, 35.83332407], [129.51672792, 35.83485305], [129.51815605, 35.83439517], [129.51909494, 35.83662188], [129.52232063, 35.83690703], [129.51764452, 35.84330583], [129.51993728, 35.84521794], [129.51930082, 35.84829998], [129.52149928, 35.85113394], [129.52616286, 35.85280442], [129.52484417, 35.85515261], [129.5267241, 35.859043], [129.52926052, 35.859375], [129.52935112, 35.86068225], [129.52726912, 35.86062694], [129.52696991, 35.86099696], [129.52764475, 35.86307836], [129.52791595, 35.86338937], [129.5347898, 35.86767697], [129.53501737, 35.86814785], [129.53522456, 35.87154007], [129.53441501, 35.87229097], [129.53219342, 35.87243223], [129.52652657, 35.87144876], [129.52295685, 35.87303841], [129.52248573, 35.87303448], [129.52060962, 35.87197506], [129.52012932, 35.87205195], [129.51876581, 35.87435114], [129.51868665, 35.87499475], [129.52009034, 35.88027096], [129.52037764, 35.88065267], [129.52359486, 35.88134944], [129.52690935, 35.88044441], [129.52836597, 35.87510347], [129.52798343, 35.87980616], [129.53019881, 35.88359141], [129.52983975, 35.88626933], [129.52585411, 35.88802624], [129.52516687, 35.89291036], [129.52731776, 35.89715624], [129.52762926, 35.89742637], [129.52849054, 35.89659154], [129.53364277, 35.89835525], [129.53452778, 35.90035963], [129.53445244, 35.90109193], [129.53300488, 35.90294743], [129.52663004, 35.90727282], [129.52761173, 35.91031802], [129.52593136, 35.91057742], [129.52508712, 35.91320348], [129.52346778, 35.91306245], [129.5249747, 35.91640735], [129.52244771, 35.91664946], [129.51966715, 35.91947496], [129.51935482, 35.92006695], [129.51882039, 35.92670538], [129.51866102, 35.92868495], [129.51949124, 35.92954127], [129.52252197, 35.93266726], [129.52529645, 35.9337995], [129.52956617, 35.93069613], [129.53109395, 35.93147397], [129.53003216, 35.93404925], [129.53419411, 35.93642724], [129.53621924, 35.93988991], [129.53490007, 35.94147956], [129.53694165, 35.94217885], [129.53729558, 35.94408166], [129.54062414, 35.94483495], [129.53950405, 35.94863772], [129.54130328, 35.95015085], [129.54360425, 35.94883215], [129.54567742, 35.95228314], [129.54768705, 35.95062423], [129.54934645, 35.95159078], [129.54687452, 35.95391071], [129.54843128, 35.95499218], [129.54803526, 35.95644426], [129.55087018, 35.96099186], [129.54784024, 35.9640094], [129.55594456, 35.96765137], [129.55235493, 35.97292507], [129.55505395, 35.97480404], [129.55271876, 35.97590065], [129.55252647, 35.97871101], [129.55670476, 35.98001838], [129.55917728, 35.98355615], [129.55829167, 35.98438334], [129.5570147, 35.9831202], [129.55489481, 35.98345077], [129.55283225, 35.98590004], [129.55643702, 35.98817265], [129.55686748, 35.98989177], [129.55961895, 35.98954725], [129.55732977, 35.98679376], [129.55807185, 35.98487997], [129.56123745, 35.98825204], [129.56842315, 35.98958266], [129.56936657, 35.99121141], [129.56720364, 35.99302876], [129.56810296, 35.99448192], [129.56693447, 35.99687922], [129.57047462, 35.99771976], [129.57217073, 36.00362182], [129.57788265, 36.00256598], [129.57812226, 36.00287342], [129.57774246, 36.00376105], [129.57582235, 36.00453103], [129.57690215, 36.0073806], [129.57912183, 36.00875497], [129.57733226, 36.01049864], [129.58186054, 36.01293254], [129.5823065, 36.01497614], [129.58424997, 36.01631355], [129.58429325, 36.01672256], [129.58325398, 36.01968682], [129.58173704, 36.01992333], [129.57750976, 36.02569735], [129.58218014, 36.02803898], [129.58245242, 36.02858245], [129.58313382, 36.03170514], [129.58289385, 36.03200257], [129.57834136, 36.03216732], [129.57791436, 36.03239274], [129.57755291, 36.03432286], [129.57772267, 36.03513026], [129.57786417, 36.03515625], [129.58212292, 36.03711104], [129.57937574, 36.03994644], [129.5837152, 36.04536796], [129.58383107, 36.04633236], [129.58369803, 36.04684866], [129.5805341, 36.04922807], [129.57798612, 36.04947793], [129.57782793, 36.05674052], [129.57595503, 36.0615468], [129.57247424, 36.06708884], [129.57049775, 36.06786835], [129.57094634, 36.07804096], [129.56631935, 36.08002043], [129.56207812, 36.07875073], [129.56172347, 36.07901168], [129.56091607, 36.08041024], [129.56195033, 36.08126044], [129.56180775, 36.08161211], [129.55964875, 36.08199668], [129.55873084, 36.08735585], [129.55804694, 36.08736551], [129.55701125, 36.08639586], [129.5566347, 36.08655678], [129.55555463, 36.08701837], [129.55215013, 36.08542275], [129.54904318, 36.08604252], [129.54578316, 36.08460867], [129.54503643, 36.07586062], [129.54049647, 36.0725162], [129.54023337, 36.06685555], [129.53662801, 36.06594038], [129.53494227, 36.06174648], [129.53260756, 36.06179726], [129.53376245, 36.05790746], [129.53166497, 36.05666912], [129.5238204, 36.05796826], [129.52421117, 36.05623615], [129.52175808, 36.05150461], [129.51886702, 36.04790986], [129.51526296, 36.04599571], [129.51530921, 36.04304481], [129.51215756, 36.04079413], [129.50830245, 36.04055297], [129.50509036, 36.03831506], [129.50421417, 36.03717196], [129.50334275, 36.03515625], [129.50309134, 36.03515625], [129.50284076, 36.03306258], [129.50340641, 36.02548134], [129.5007683, 36.02375305], [129.49625742, 36.02304041], [129.49167252, 36.01821446], [129.48706961, 36.01639855], [129.48185706, 36.01613975], [129.47944033, 36.01531565], [129.47502816, 36.01339281], [129.46590543, 36.00786221], [129.45911562, 36.00338376], [129.45672131, 36.00089765], [129.45640636, 35.99993563], [129.45807767, 35.99657106], [129.45801044, 35.9961338], [129.45603621, 35.99308336], [129.45205104, 35.99126077], [129.45100868, 35.99099612], [129.44772196, 35.99095845], [129.44445348, 35.99172592], [129.43321764, 35.99512517], [129.423316, 35.99919546], [129.42295456, 35.99936271], [129.42007625, 36.00342262], [129.41652417, 36.00528932], [129.41667104, 36.00660527], [129.4230659, 36.01077485], [129.42406046, 36.02056503], [129.42226994, 36.01836562], [129.4222368, 36.01308155], [129.41819107, 36.01262558], [129.41819107, 36.01648796], [129.41580355, 36.01632714], [129.41543865, 36.01195514], [129.41288543, 36.01176727], [129.41301811, 36.01592481], [129.40980136, 36.01573706], [129.40963554, 36.01047993], [129.40701592, 36.00865603], [129.40389883, 36.01085544], [129.40665114, 36.01313531], [129.40532458, 36.01412773], [129.40267181, 36.01203561], [129.39869702, 36.01365495], [129.39497852, 36.01050675], [129.39239204, 36.01184785], [129.39451432, 36.01753414], [129.39540947, 36.01723897], [129.39704871, 36.02014053], [129.40038371, 36.02085996], [129.40781927, 36.02890193], [129.41704345, 36.02616537], [129.43184853, 36.02717924], [129.43166935, 36.03007615], [129.41441691, 36.0351938], [129.40134311, 36.0385251], [129.39608967, 36.03485584], [129.39053786, 36.03060722], [129.38779771, 36.02923095], [129.38599527, 36.0284096], [129.38491166, 36.02684164], [129.37828064, 36.01308393], [129.37607038, 36.00988376], [129.375, 36.00892854], [129.36956334, 36.00418878], [129.36391795, 36.00142503], [129.36329651, 36.00208986], [129.3503803, 36.00027895], [129.33764923, 36.00215066], [129.33087635, 36.00215244], [129.32424057, 36.00159216], [129.31629622, 36.00054204], [129.31583571, 36.00038695], [129.31309926, 35.99752605], [129.30887795, 35.99623215], [129.29084635, 35.99365425], [129.29036617, 35.99346793], [129.28794491, 35.99157906], [129.28651536, 35.98894906], [129.28655195, 35.98615718], [129.27218318, 35.9797914], [129.27149344, 35.98032975], [129.27260017, 35.98262405], [129.28328967, 35.98736477], [129.28650713, 35.99304783], [129.28928006, 35.99484146], [129.29833353, 35.99498475], [129.30487025, 35.99651182], [129.31236994, 35.99870193], [129.31350076, 36.00065756], [129.31973326, 36.00303972], [129.34141362, 36.00382996], [129.34957063, 36.00230455], [129.35152376, 36.00256395], [129.35655224, 36.00365675], [129.36141038, 36.00525427], [129.36999536, 36.00982177], [129.37368214, 36.014117], [129.37482774, 36.01757813], [129.375, 36.01757813], [129.375, 36.01953125], [129.38044024, 36.02863514], [129.38286126, 36.03098965], [129.382851, 36.03143036], [129.38085365, 36.03515625], [129.3805201, 36.03515625], [129.37591183, 36.04320526], [129.3757081, 36.04373717], [129.37588131, 36.04535413], [129.377581, 36.04699755], [129.37627006, 36.05000651], [129.375, 36.04994404], [129.37503386, 36.05086267], [129.37638032, 36.0508517], [129.38224685, 36.04931307], [129.37781954, 36.05344975], [129.38011122, 36.05930138], [129.38127947, 36.06093228], [129.38290262, 36.06273007], [129.38570225, 36.06374907], [129.38677847, 36.06395435], [129.38979805, 36.06231451], [129.39732027, 36.06310701], [129.39765465, 36.06325007], [129.40193725, 36.06928051], [129.40566802, 36.07138085], [129.40931833, 36.07295334], [129.40987205, 36.07303917], [129.41324425, 36.07186305], [129.41759562, 36.07277524], [129.41989565, 36.07556248], [129.41981435, 36.07880044], [129.41715968, 36.08400655], [129.41795063, 36.08741975], [129.41914594, 36.08869445], [129.42104185, 36.08812738], [129.42532182, 36.09348595], [129.43007541, 36.09640884], [129.43220258, 36.10456455], [129.43143702, 36.10939968], [129.43251276, 36.10930324], [129.43251276, 36.10070944], [129.43430567, 36.10099912], [129.43596365, 36.10525612], [129.43765271, 36.10959291], [129.43973053, 36.10977495], [129.43944561, 36.11065495], [129.43166006, 36.11034477], [129.43144584, 36.1118468], [129.43590808, 36.11379683], [129.43173707, 36.11386132], [129.42993975, 36.11190486], [129.42957163, 36.11199605], [129.42237687, 36.11630917], [129.41825378, 36.11743605], [129.41649556, 36.12051046], [129.40558076, 36.12614465], [129.40505958, 36.12801147], [129.4019804, 36.12865734], [129.40243995, 36.12988543], [129.39873672, 36.13350594], [129.39834726, 36.13425255], [129.39866185, 36.13743603], [129.39530146, 36.14017165], [129.39593995, 36.14236772], [129.39770913, 36.14245391], [129.39899755, 36.14421451], [129.3992753, 36.14480865], [129.39945316, 36.14544356], [129.39786005, 36.14618433], [129.40187144, 36.15414405], [129.40190256, 36.15471113], [129.39844406, 36.15612733], [129.40117502, 36.16017175], [129.398247, 36.1611886], [129.39832485, 36.16147864], [129.40148735, 36.16560173], [129.39839816, 36.16756725], [129.39787388, 36.17201161], [129.39623725, 36.17240775], [129.39696634, 36.17442596], [129.39683855, 36.17484343], [129.39415658, 36.17901194], [129.39407361, 36.17946923], [129.39526868, 36.1821295], [129.39379621, 36.18548298], [129.39343405, 36.18566728], [129.38969147, 36.18634033], [129.38684404, 36.18349886], [129.38657021, 36.18506122], [129.38309324, 36.18617523], [129.38173985, 36.18701041], [129.37847436, 36.18966401], [129.375, 36.19335926], [129.375, 36.19391727], [129.37158644, 36.20161748], [129.37158728, 36.20410335], [129.37413752, 36.20758915], [129.375, 36.20758915], [129.37814307, 36.20683873], [129.37866533, 36.20861232], [129.38362515, 36.2109375], [129.38398766, 36.2109375], [129.38602567, 36.21470416], [129.38735783, 36.22280824], [129.38312173, 36.22679031], [129.38153172, 36.23148584], [129.38450086, 36.23288846], [129.38633585, 36.24014592], [129.37714005, 36.24565566], [129.375, 36.25027895], [129.375, 36.25055802], [129.37335765, 36.25292754], [129.37482715, 36.25725436], [129.375, 36.25725436], [129.37534571, 36.25850987], [129.37654722, 36.26945901], [129.38195586, 36.27533555], [129.38123441, 36.27729702], [129.37692285, 36.28062356], [129.37651455, 36.28121841], [129.375, 36.28543532], [129.375, 36.28599334], [129.37468874, 36.28643966], [129.37482715, 36.28794634], [129.375, 36.28794634], [129.375, 36.28878343], [129.37885416, 36.29003692], [129.3793087, 36.29065764], [129.37972522, 36.29424643], [129.38009644, 36.29937506], [129.37746727, 36.30665672], [129.37983036, 36.30766976], [129.38105464, 36.31093705], [129.37932324, 36.31768656], [129.38179195, 36.31903255], [129.38251555, 36.32199085], [129.38003385, 36.33178318], [129.38140905, 36.33668816], [129.38287616, 36.33770227], [129.38281775, 36.3421092], [129.38663304, 36.34361243], [129.38888228, 36.34830081], [129.38809836, 36.35230112], [129.38844252, 36.35629404], [129.38938355, 36.35781086], [129.38936341, 36.35784435], [129.38823485, 36.35848796], [129.38432562, 36.35749614], [129.38073385, 36.3586843], [129.38271093, 36.37185574], [129.38166297, 36.37351787], [129.37722385, 36.37556422], [129.37643552, 36.37956226], [129.37658167, 36.37974596], [129.37883794, 36.37623167], [129.38429725, 36.37267637], [129.38161421, 36.35897112], [129.39090896, 36.35857975], [129.39129221, 36.35857022], [129.39455426, 36.36218965], [129.39480138, 36.36260152], [129.39601183, 36.3679167], [129.3962481, 36.36829793], [129.40623987, 36.38127923], [129.40714884, 36.38671875], [129.40719485, 36.38671875], [129.40785992, 36.38878918], [129.40868187, 36.38954258], [129.41298675, 36.38979256], [129.41448736, 36.39104414], [129.41755903, 36.39755094], [129.42116368, 36.39954376], [129.42578232, 36.40569294], [129.42841375, 36.40600646], [129.43202925, 36.41830087], [129.43561017, 36.42310202], [129.43697143, 36.42691147], [129.43705201, 36.42810225], [129.43347633, 36.43690956], [129.43399382, 36.44087136], [129.43547273, 36.44146764], [129.43552911, 36.44430697], [129.43700862, 36.44566905], [129.43610871, 36.45748794], [129.43835771, 36.46465015], [129.43390775, 36.47631204], [129.43378615, 36.48175836], [129.43451977, 36.48301351], [129.43583036, 36.48114324], [129.43734491, 36.48404145], [129.44540524, 36.48848546], [129.4463782450504, 36.5], [131.5, 36.5], [131.5, 36.366955021538196], [131.35619854, 36.22581318]], [[129.40412295, 36.15383697], [129.40326357, 36.15607095], [129.40274286, 36.15634525], [129.40283334, 36.15439832], [129.40412295, 36.15383697]], [[129.35248554, 35.44837475], [129.35288465, 35.44965744], [129.3515501, 35.44927788], [129.35137916, 35.44858932], [129.35248554, 35.44837475]], [[129.36039555, 35.41747475], [129.36041469, 35.41749732], [129.36059046, 35.4177047], [129.36070955, 35.41800969], [129.36128867, 35.41949272], [129.36082184, 35.4200325], [129.36002505, 35.42017925], [129.35702348, 35.41833401], [129.36039555, 35.41747475]], [[129.35055196, 35.38505924], [129.35269713, 35.38531947], [129.35140765, 35.38699233], [129.35096872, 35.38705897], [129.35019541, 35.38532841], [129.35055196, 35.38505924]], [[129.12709248, 35.09050667], [129.12817538, 35.09210432], [129.12656581, 35.09470963], [129.12578726, 35.09163332], [129.12586165, 35.09125495], [129.12709248, 35.09050667]], [[129.07062638, 35.09489322], [129.06654513, 35.0971508], [129.06147552, 35.09907222], [129.05880773, 35.10161698], [129.04889202, 35.09946632], [129.04699242, 35.09711313], [129.04716635, 35.10056198], [129.04615521, 35.10081637], [129.0453608, 35.10064256], [129.04204142, 35.09931207], [129.03820801, 35.09544671], [129.03096485, 35.09310794], [129.03085124, 35.08943558], [129.03327835, 35.08824265], [129.03433228, 35.0848844], [129.03846073, 35.08025062], [129.04297125, 35.07921004], [129.05510986, 35.0698086], [129.05651855, 35.07027996], [129.05655622, 35.06907392], [129.0568583, 35.06894767], [129.06384945, 35.06911898], [129.06557894, 35.06699276], [129.06560445, 35.06471705], [129.06399918, 35.06309974], [129.06905377, 35.06019294], [129.07044125, 35.05814874], [129.07641375, 35.06040156], [129.07670188, 35.06024635], [129.07846177, 35.05894172], [129.07969606, 35.05557775], [129.08199358, 35.05471385], [129.08216715, 35.05028784], [129.08581781, 35.04886866], [129.08645022, 35.04887462], [129.08924246, 35.04942834], [129.09296525, 35.05157387], [129.09336698, 35.05202556], [129.09225166, 35.05377114], [129.09391224, 35.05431354], [129.09408414, 35.05455577], [129.09651053, 35.05907285], [129.09628034, 35.05960774], [129.0915277, 35.06081021], [129.08729196, 35.06371164], [129.08507836, 35.06745374], [129.08509707, 35.07100987], [129.08366168, 35.07054794], [129.08423865, 35.06866813], [129.08210635, 35.06954312], [129.08198214, 35.07117534], [129.08081842, 35.07151258], [129.08473313, 35.07342327], [129.07817674, 35.08358705], [129.07853556, 35.08608627], [129.07062638, 35.09489322]], [[129.08847976, 35.07287347], [129.08904016, 35.07298076], [129.09246385, 35.07561171], [129.09560645, 35.07635176], [129.09594345, 35.07665575], [129.09597695, 35.07985425], [129.09285867, 35.0807507], [129.08660185, 35.07676756], [129.08615923, 35.07333755], [129.08847976, 35.07287347]], [[129.01518023, 35.05001485], [129.01392305, 35.04757512], [129.01454294, 35.04672015], [129.01581454, 35.04700077], [129.01646018, 35.04811871], [129.01645041, 35.04871392], [129.01562274, 35.04992211], [129.01518023, 35.05001485]], [[129.06391907, 35.11166406], [129.06467807, 35.11005986], [129.06500697, 35.10994112], [129.06657636, 35.11062086], [129.06636608, 35.11138845], [129.06482112, 35.11151981], [129.06391907, 35.11166406]]], [[[129.00566423, 35.25390112], [129.00798285, 35.26964581], [129.00985217, 35.27074814], [129.0117439, 35.27126312], [129.01442373, 35.27152061], [129.01615775, 35.27177811], [129.01746285, 35.27117038], [129.01713037, 35.26872945], [129.00867081, 35.25373387], [129.00126016, 35.23362994], [129.00060475, 35.22253346], [129.0, 35.22133405886216], [129.0, 35.24483127899463], [129.00566423, 35.25390112]], [[129.00927246, 35.26897323], [129.00816345, 35.26189625], [129.00864625, 35.26089644], [129.00907147, 35.26101696], [129.01006913, 35.26404643], [129.00927246, 35.26897323]]]]}, "geometry_name": "the_geom", "properties": {"mrgid": 8327, "geoname": "South Korean Exclusive Economic Zone", "mrgid_ter1": 8600, "pol_type": "200NM", "mrgid_sov1": 8600, "territory1": "South Korea", "iso_ter1": "KOR", "sovereign1": "South Korea", "mrgid_ter2": null, "mrgid_sov2": null, "territory2": null, "iso_ter2": null, "sovereign2": null, "mrgid_ter3": null, "mrgid_sov3": null, "territory3": null, "iso_ter3": null, "sovereign3": null, "x_1": 127.57712, "y_1": 35.74071, "mrgid_eez": 8327, "area_km2": 347671, "iso_sov1": "KOR", "iso_sov2": null, "iso_sov3": null, "un_sov1": 410, "un_sov2": null, "un_sov3": null, "un_ter1": 410, "un_ter2": null, "un_ter3": null}}], "totalFeatures": 1, "numberMatched": 1, "numberReturned": 1, "timeStamp": "2026-03-26T23:42:06.845Z", "crs": {"type": "name", "properties": {"name": "urn:ogc:def:crs:EPSG::4326"}}}